{"type": "FeatureCollection", "features": [ {"type": "Feature", "properties": {"norad_id": 64901, "name": "CO3D 4", "group": "resource", "lat": 56.09965917721635, "lon": 55.06381932775538, "alt_km": 500.32886963576857, "timestamp": "2025-12-15T22:44:28.581532+00:00", "meta": {"OBJECT_NAME": "CO3D 4", "OBJECT_ID": "2025-156C", "EPOCH": "2025-12-15T08:16:27.481728", "MEAN_MOTION": 15.20188427, "ECCENTRICITY": 9.214e-05, "INCLINATION": 97.4345, "RA_OF_ASC_NODE": 65.6748, "ARG_OF_PERICENTER": 187.39, "MEAN_ANOMALY": 172.7322, "EPHEMERIS_TYPE": 0, "CLASSIFICATION_TYPE": "U", "NORAD_CAT_ID": 64901, "ELEMENT_SET_NO": 999, "REV_AT_EPOCH": 2160, "BSTAR": 0.00021573024, "MEAN_MOTION_DOT": 4.603e-05, "MEAN_MOTION_DDOT": 0}, "tle": {"line1": "1 64901U 25156C   25349.34476252  .00004603  00000+0  21573-3 0  9998", "line2": "2 64901  97.4345  65.6748 0000921 187.3900 172.7322 15.20188427 21601"}}, "geometry": {"type": "Point", "coordinates": [55.06381932775538, 56.09965917721635]}}, {"type": "Feature", "properties": {"norad_id": 64902, "name": "CO3D 2", "group": "resource", "lat": -76.90069182290142, "lon": -147.83556241747158, "alt_km": 504.8922787859101, "timestamp": "2025-12-15T22:44:28.581542+00:00", "meta": {"OBJECT_NAME": "CO3D 2", "OBJECT_ID": "2025-156D", "EPOCH": "2025-12-12T21:01:26.694624", "MEAN_MOTION": 15.22031437, "ECCENTRICITY": 0.00203863, "INCLINATION": 97.4215, "RA_OF_ASC_NODE": 63.2016, "ARG_OF_PERICENTER": 351.3096, "MEAN_ANOMALY": 8.7784, "EPHEMERIS_TYPE": 0, "CLASSIFICATION_TYPE": "U", "NORAD_CAT_ID": 64902, "ELEMENT_SET_NO": 999, "REV_AT_EPOCH": 2122, "BSTAR": 0.00010503321, "MEAN_MOTION_DOT": 2.342e-05, "MEAN_MOTION_DDOT": 0}, "tle": {"line1": "1 64902U 25156D   25346.87600341  .00002342  00000+0  10503-3 0  9991", "line2": "2 64902  97.4215  63.2016 0020386 351.3096   8.7784 15.22031437 21224"}}, "geometry": {"type": "Point", "coordinates": [-147.83556241747158, -76.90069182290142]}}, {"type": "Feature", "properties": {"norad_id": 64903, "name": "CO3D 1", "group": "resource", "lat": -58.640918323088414, "lon": -126.20513618103907, "alt_km": 512.9422147129926, "timestamp": "2025-12-15T22:44:28.581552+00:00", "meta": {"OBJECT_NAME": "CO3D 1", "OBJECT_ID": "2025-156E", "EPOCH": "2025-12-15T15:22:20.851104", "MEAN_MOTION": 15.20205605, "ECCENTRICITY": 8.54e-05, "INCLINATION": 97.4345, "RA_OF_ASC_NODE": 65.8649, "ARG_OF_PERICENTER": 71.0732, "MEAN_ANOMALY": 289.0596, "EPHEMERIS_TYPE": 0, "CLASSIFICATION_TYPE": "U", "NORAD_CAT_ID": 64903, "ELEMENT_SET_NO": 999, "REV_AT_EPOCH": 2164, "BSTAR": 0.00019508, "MEAN_MOTION_DOT": 4.158e-05, "MEAN_MOTION_DDOT": 0}, "tle": {"line1": "1 64903U 25156E   25349.64051911  .00004158  00000+0  19508-3 0  9994", "line2": "2 64903  97.4345  65.8649 0000854  71.0732 289.0596 15.20205605 21649"}}, "geometry": {"type": "Point", "coordinates": [-126.20513618103907, -58.640918323088414]}}, {"type": "Feature", "properties": {"norad_id": 66514, "name": "SENTINEL-6B", "group": "resource", "lat": 42.756445926929956, "lon": -48.507672514885655, "alt_km": 1335.4370994715691, "timestamp": "2025-12-15T22:44:28.581562+00:00", "meta": {"OBJECT_NAME": "SENTINEL-6B", "OBJECT_ID": "2025-264A", "EPOCH": "2025-12-12T06:01:21.430272", "MEAN_MOTION": 12.81479576, "ECCENTRICITY": 0.0007847, "INCLINATION": 66.0385, "RA_OF_ASC_NODE": 163.4531, "ARG_OF_PERICENTER": 270.1745, "MEAN_ANOMALY": 89.8371, "EPHEMERIS_TYPE": 0, "CLASSIFICATION_TYPE": "U", "NORAD_CAT_ID": 66514, "ELEMENT_SET_NO": 999, "REV_AT_EPOCH": 322, "BSTAR": 0.00018864317, "MEAN_MOTION_DOT": -1.7e-07, "MEAN_MOTION_DDOT": 0}, "tle": {"line1": "1 66514U 25264A   25346.25094248 -.00000017  00000+0  18864-3 0  9993", "line2": "2 66514  66.0385 163.4531 0007847 270.1745  89.8371 12.81479576  3220"}}, "geometry": {"type": "Point", "coordinates": [-48.507672514885655, 42.756445926929956]}}]}